*******************************************************************************
 Revised : Jul 31, 2013                  Sun                                 10

 PHYSICAL PROPERTIES (revised Jan 16, 2014):
  GM (10^11 km^3/s^2)   = 1.3271244004193938  Mass (10^30 kg)   ~ 1.988544
  Radius (photosphere)  = 6.963(10^5) km  Angular diam at 1 AU  = 1919.3"
  Solar Radius (IAU)    = 6.955(10^5) km  Mean density          = 1.408 g/cm^3
  Surface gravity       =  274.0 m/s^2    Moment of inertia     = 0.059
  Escape velocity       =  617.7 km/s     Adopted sidereal per  = 25.38 d
  Pole (RA,DEC in deg.) =  286.13,63.87   Obliquity to ecliptic = 7 deg 15'        
  Solar constant (1 AU) = 1367.6 W/m^2    Solar lumin.(erg/s)   =  3.846(10^33)
  Mass-energy conv rate = 4.3(10^12 gm/s) Effective temp (K)    =  5778
  Surf. temp (photosphr)= 6600 K (bottom) Surf. temp (photosphr)=  4400 K (top)
  Photospheric depth    = ~400 km         Chromospheric depth   = ~2500 km
  Sunspot cycle         = 11.4 yr         Cycle 22 sunspot min. =  1991 A.D.

  Motn. rel to nrby strs= apex : RA=271 deg; DEC=+30 deg
                          speed: 19.4 km/s = 0.0112 AU/day
  Motn. rel to 2.73K BB = apex : l=264.7+-0.8; b=48.2+-0.5
                          speed: 369 +-11 km/s
*******************************************************************************
 
 
*******************************************************************************
Ephemeris / WWW_USER Wed Jan 24 11:48:39 2018 Pasadena, USA      / Horizons    
*******************************************************************************
Target body name: Sun (10)                        {source: DE431mx}
Center body name: Solar System Barycenter (0)     {source: DE431mx}
Center-site name: BODY CENTER
*******************************************************************************
Start time      : A.D. 2017-Jan-01 00:00:00.0000 TDB
Stop  time      : A.D. 2068-Jan-01 00:00:00.0000 TDB
Step-size       : 1440 minutes
*******************************************************************************
Center geodetic : 0.00000000,0.00000000,0.0000000 {E-lon(deg),Lat(deg),Alt(km)}
Center cylindric: 0.00000000,0.00000000,0.0000000 {E-lon(deg),Dxy(km),Dz(km)}
Center radii    : (undefined)                                                  
Output units    : KM-S                                                         
Output type     : GEOMETRIC cartesian states
Output format   : 2 (position and velocity)
Reference frame : ICRF/J2000.0                                                 
Coordinate systm: Ecliptic and Mean Equinox of Reference Epoch                 
*******************************************************************************
            JDTDB,            Calendar Date (TDB),                      X,                      Y,                      Z,                     VX,                     VY,                     VZ,
**************************************************************************************************************************************************************************************************
$$SOE
2461464.500000000, A.D. 2027-Feb-28 00:00:00.0000, -5.915153399533814E+04, -6.980783771682058E+05,  1.138214650823217E+04,  8.818608684416380E-03,  6.484892123902456E-03, -1.935464161967851E-04,
2461465.500000000, A.D. 2027-Mar-01 00:00:00.0000, -5.839027079077048E+04, -6.975176804983323E+05,  1.136543627017274E+04,  8.803233606595471E-03,  6.494178774035528E-03, -1.932659189854118E-04,
2461466.500000000, A.D. 2027-Mar-02 00:00:00.0000, -5.763033366842681E+04, -6.969561862441259E+05,  1.134874994007926E+04,  8.787912675116664E-03,  6.503355415178044E-03, -1.929929684953468E-04,
2461467.500000000, A.D. 2027-Mar-03 00:00:00.0000, -5.687171786626744E+04, -6.963939037340295E+05,  1.133208687184448E+04,  8.772647785739239E-03,  6.512426097249948E-03, -1.927274266677347E-04,
2461468.500000000, A.D. 2027-Mar-04 00:00:00.0000, -5.611441846918582E+04, -6.958308419547564E+05,  1.131544643144368E+04,  8.757440593393053E-03,  6.521394681802739E-03, -1.924691524641626E-04,
2461469.500000000, A.D. 2027-Mar-05 00:00:00.0000, -5.535843042798002E+04, -6.952670095672393E+05,  1.129882799705258E+04,  8.742292553539031E-03,  6.530264850097355E-03, -1.922180049429107E-04,
2461470.500000000, A.D. 2027-Mar-06 00:00:00.0000, -5.460374857503523E+04, -6.947024149217621E+05,  1.128223095893583E+04,  8.727204957075605E-03,  6.539040113745453E-03, -1.919738455319858E-04,
2461471.500000000, A.D. 2027-Mar-07 00:00:00.0000, -5.385036763724354E+04, -6.941370660720998E+05,  1.126565471916803E+04,  8.712178959471396E-03,  6.547723826893241E-03, -1.917365396451685E-04,
2461472.500000000, A.D. 2027-Mar-08 00:00:00.0000, -5.309828224664379E+04, -6.935709707885602E+05,  1.124909869124054E+04,  8.697215604414931E-03,  6.556319199397469E-03, -1.915059577134947E-04,
2461473.500000000, A.D. 2027-Mar-09 00:00:00.0000, -5.234748694919859E+04, -6.930041365698869E+05,  1.123256229959626E+04,  8.682315844028907E-03,  6.564829309578839E-03, -1.912819759296532E-04,
2461474.500000000, A.D. 2027-Mar-10 00:00:00.0000, -5.159797621196319E+04, -6.924365706540782E+05,  1.121604497911115E+04,  8.667480554927933E-03,  6.573257117148835E-03, -1.910644766019076E-04,
2461475.500000000, A.D. 2027-Mar-11 00:00:00.0000, -5.084974442902933E+04, -6.918682800280935E+05,  1.119954617455954E+04,  8.652710551543411E-03,  6.581605475387330E-03, -1.908533483136548E-04,
2461476.500000000, A.D. 2027-Mar-12 00:00:00.0000, -5.010278592641096E+04, -6.912992714365500E+05,  1.118306534007119E+04,  8.638006596938004E-03,  6.589877142675678E-03, -1.906484859027263E-04,
2461477.500000000, A.D. 2027-Mar-13 00:00:00.0000, -4.935709496608978E+04, -6.907295513894488E+05,  1.116660193859661E+04,  8.623369411596436E-03,  6.598074793271977E-03, -1.904497903170888E-04,
2461478.500000000, A.D. 2027-Mar-14 00:00:00.0000, -4.861266574937433E+04, -6.901591261690080E+05,  1.115015544138860E+04,  8.608799680576885E-03,  6.606201027282094E-03, -1.902571683838790E-04,
2461479.500000000, A.D. 2027-Mar-15 00:00:00.0000, -4.786949241970077E+04, -6.895880018356657E+05,  1.113372532750617E+04,  8.594298059333922E-03,  6.614258379851828E-03, -1.900705325185640E-04,
2461480.500000000, A.D. 2027-Mar-16 00:00:00.0000, -4.712756906497831E+04, -6.890161842333234E+05,  1.111731108334629E+04,  8.579865178476294E-03,  6.622249329622574E-03, -1.898898003951685E-04,
2461481.500000000, A.D. 2027-Mar-17 00:00:00.0000, -4.638688971956138E+04, -6.884436789938862E+05,  1.110091220220417E+04,  8.565501647680060E-03,  6.630176306507106E-03, -1.897148945933912E-04,
2461482.500000000, A.D. 2027-Mar-18 00:00:00.0000, -4.564744836591369E+04, -6.878704915411603E+05,  1.108452818386545E+04,  8.551208058939523E-03,  6.638041698853856E-03, -1.895457422338770E-04,
2461483.500000000, A.D. 2027-Mar-19 00:00:00.0000, -4.490923893601432E+04, -6.872966270941531E+05,  1.106815853422950E+04,  8.536984989305076E-03,  6.645847860077275E-03, -1.893822746091302E-04,
2461484.500000000, A.D. 2027-Mar-20 00:00:00.0000, -4.417225531254520E+04, -6.867220906698230E+05,  1.105180276496519E+04,  8.522833003228668E-03,  6.653597114838452E-03, -1.892244268143417E-04,
2461485.500000000, A.D. 2027-Mar-21 00:00:00.0000, -4.343649132988916E+04, -6.861468870853087E+05,  1.103546039319810E+04,  8.508752654613738E-03,  6.661291764864293E-03, -1.890721373799227E-04,
2461486.500000000, A.D. 2027-Mar-22 00:00:00.0000, -4.270194077496091E+04, -6.855710209596702E+05,  1.101913094122967E+04,  8.494744488647647E-03,  6.668934094494984E-03, -1.889253479056769E-04,
2461487.500000000, A.D. 2027-Mar-23 00:00:00.0000, -4.196859738788661E+04, -6.849944967151581E+05,  1.100281393628748E+04,  8.480809043480331E-03,  6.676526376048479E-03, -1.887840026953531E-04,
2461488.500000000, A.D. 2027-Mar-24 00:00:00.0000, -4.123645486254321E+04, -6.844173185780242E+05,  1.098650891030781E+04,  8.466946851803565E-03,  6.684070875087084E-03, -1.886480483898221E-04,
2461489.500000000, A.D. 2027-Mar-25 00:00:00.0000, -4.050550684696464E+04, -6.838394905788779E+05,  1.097021539974952E+04,  8.453158442350579E-03,  6.691569855691033E-03, -1.885174335890917E-04,
2461490.500000000, A.D. 2027-Mar-26 00:00:00.0000, -3.977574694362058E+04, -6.832610165525832E+05,  1.095393294544207E+04,  8.439444341350603E-03,  6.699025585832757E-03, -1.883921084639049E-04,
2461491.500000000, A.D. 2027-Mar-27 00:00:00.0000, -3.904716870957238E+04, -6.826819001376841E+05,  1.093766109246656E+04,  8.425805073931234E-03,  6.706440342933582E-03, -1.882720243479080E-04,
2461492.500000000, A.D. 2027-Mar-28 00:00:00.0000, -3.831976565650846E+04, -6.821021447753373E+05,  1.092139939007474E+04,  8.412241165479744E-03,  6.713816419741275E-03, -1.881571332945490E-04,
2461493.500000000, A.D. 2027-Mar-29 00:00:00.0000, -3.759353125066683E+04, -6.815217537077197E+05,  1.090514739164678E+04,  8.398753142904492E-03,  6.721156130586251E-03, -1.880473875971195E-04,
2461494.500000000, A.D. 2027-Mar-30 00:00:00.0000, -3.686845891265295E+04, -6.809407299758760E+05,  1.088890465469332E+04,  8.385341535785466E-03,  6.728461818176115E-03, -1.879427392531838E-04,
2461495.500000000, A.D. 2027-Mar-31 00:00:00.0000, -3.614454201716557E+04, -6.803590764169495E+05,  1.087267074090696E+04,  8.372006877337246E-03,  6.735735861033572E-03, -1.878431393584701E-04,
2461496.500000000, A.D. 2027-Apr-01 00:00:00.0000, -3.542177389265087E+04, -6.797767956607394E+05,  1.085644521626897E+04,  8.358749705093491E-03,  6.742980681701778E-03, -1.877485374121566E-04,
2461497.500000000, A.D. 2027-Apr-02 00:00:00.0000, -3.470014782091325E+04, -6.791938901255117E+05,  1.084022765122162E+04,  8.345570561198216E-03,  6.750198755854834E-03, -1.876588805119323E-04,
2461498.500000000, A.D. 2027-Apr-03 00:00:00.0000, -3.397965703672342E+04, -6.786103620129767E+05,  1.082401762091482E+04,  8.332469992155216E-03,  6.757392622459213E-03, -1.875741124132508E-04,
